[{"OBJECT_NAME":"KOREASAT 5 (MUGUNGWHA 5)","OBJECT_ID":"2006-034A","EPOCH":"2026-04-25T19:16:53.677056","MEAN_MOTION":1.00272653,"ECCENTRICITY":0.0001574,"INCLINATION":1.652,"RA_OF_ASC_NODE":83.5986,"ARG_OF_PERICENTER":337.787,"MEAN_ANOMALY":194.7035,"EPHEMERIS_TYPE":0,"CLASSIFICATION_TYPE":"U","NORAD_CAT_ID":29349,"ELEMENT_SET_NO":999,"REV_AT_EPOCH":4079,"BSTAR":0,"MEAN_MOTION_DOT":-3.7e-6,"MEAN_MOTION_DDOT":0},{"OBJECT_NAME":"DIRECTV 9S","OBJECT_ID":"2006-043A","EPOCH":"2026-04-25T15:07:50.587968","MEAN_MOTION":1.00271504,"ECCENTRICITY":0.0004121,"INCLINATION":2.2871,"RA_OF_ASC_NODE":81.5006,"ARG_OF_PERICENTER":328.3555,"MEAN_ANOMALY":289.5444,"EPHEMERIS_TYPE":0,"CLASSIFICATION_TYPE":"U","NORAD_CAT_ID":29494,"ELEMENT_SET_NO":999,"REV_AT_EPOCH":5085,"BSTAR":0,"MEAN_MOTION_DOT":-1.25e-6,"MEAN_MOTION_DDOT":0},{"OBJECT_NAME":"OPTUS D1","OBJECT_ID":"2006-043B","EPOCH":"2026-04-25T19:28:00.112224","MEAN_MOTION":1.00271582,"ECCENTRICITY":0.0003879,"INCLINATION":2.902,"RA_OF_ASC_NODE":80.2712,"ARG_OF_PERICENTER":313.161,"MEAN_ANOMALY":264.3862,"EPHEMERIS_TYPE":0,"CLASSIFICATION_TYPE":"U","NORAD_CAT_ID":29495,"ELEMENT_SET_NO":999,"REV_AT_EPOCH":7159,"BSTAR":0,"MEAN_MOTION_DOT":-1.95e-6,"MEAN_MOTION_DDOT":0},{"OBJECT_NAME":"BADR-4","OBJECT_ID":"2006-051A","EPOCH":"2026-04-25T18:52:11.047008","MEAN_MOTION":1.00271144,"ECCENTRICITY":0.0005952,"INCLINATION":1.8715,"RA_OF_ASC_NODE":81.644,"ARG_OF_PERICENTER":298.4817,"MEAN_ANOMALY":143.0386,"EPHEMERIS_TYPE":0,"CLASSIFICATION_TYPE":"U","NORAD_CAT_ID":29526,"ELEMENT_SET_NO":999,"REV_AT_EPOCH":5074,"BSTAR":0,"MEAN_MOTION_DOT":1.33e-6,"MEAN_MOTION_DDOT":0},{"OBJECT_NAME":"WILDBLUE-1","OBJECT_ID":"2006-054A","EPOCH":"2026-04-25T14:47:37.234752","MEAN_MOTION":1.00272042,"ECCENTRICITY":0.0001548,"INCLINATION":2.6693,"RA_OF_ASC_NODE":81.1146,"ARG_OF_PERICENTER":303.8626,"MEAN_ANOMALY":299.362,"EPHEMERIS_TYPE":0,"CLASSIFICATION_TYPE":"U","NORAD_CAT_ID":29643,"ELEMENT_SET_NO":999,"REV_AT_EPOCH":5326,"BSTAR":0,"MEAN_MOTION_DOT":-6.1e-7,"MEAN_MOTION_DDOT":0},{"OBJECT_NAME":"SKYNET 5A","OBJECT_ID":"2007-007B","EPOCH":"2026-04-25T20:57:21.716064","MEAN_MOTION":1.00273297,"ECCENTRICITY":0.0004057,"INCLINATION":5.169,"RA_OF_ASC_NODE":74.3592,"ARG_OF_PERICENTER":330.3185,"MEAN_ANOMALY":218.7847,"EPHEMERIS_TYPE":0,"CLASSIFICATION_TYPE":"U","NORAD_CAT_ID":30794,"ELEMENT_SET_NO":999,"REV_AT_EPOCH":7017,"BSTAR":0,"MEAN_MOTION_DOT":-2.81e-6,"MEAN_MOTION_DDOT":0},{"OBJECT_NAME":"ANIK F3","OBJECT_ID":"2007-009A","EPOCH":"2026-04-25T16:28:07.665312","MEAN_MOTION":1.00272002,"ECCENTRICITY":0.0002687,"INCLINATION":1.0633,"RA_OF_ASC_NODE":84.4024,"ARG_OF_PERICENTER":306.9483,"MEAN_ANOMALY":310.666,"EPHEMERIS_TYPE":0,"CLASSIFICATION_TYPE":"U","NORAD_CAT_ID":31102,"ELEMENT_SET_NO":999,"REV_AT_EPOCH":4603,"BSTAR":0,"MEAN_MOTION_DOT":-1.4e-7,"MEAN_MOTION_DDOT":0},{"OBJECT_NAME":"ASTRA 1L","OBJECT_ID":"2007-016A","EPOCH":"2026-04-25T20:32:38.801760","MEAN_MOTION":1.0027154,"ECCENTRICITY":0.0004661,"INCLINATION":1.1882,"RA_OF_ASC_NODE":81.9113,"ARG_OF_PERICENTER":327.9592,"MEAN_ANOMALY":87.6472,"EPHEMERIS_TYPE":0,"CLASSIFICATION_TYPE":"U","NORAD_CAT_ID":31306,"ELEMENT_SET_NO":999,"REV_AT_EPOCH":4446,"BSTAR":0,"MEAN_MOTION_DOT":-1.97e-6,"MEAN_MOTION_DDOT":0},{"OBJECT_NAME":"GALAXY 17 (G-17)","OBJECT_ID":"2007-016B","EPOCH":"2026-04-25T20:49:38.771040","MEAN_MOTION":1.00271044,"ECCENTRICITY":0.0004247,"INCLINATION":2.8419,"RA_OF_ASC_NODE":80.5295,"ARG_OF_PERICENTER":328.0353,"MEAN_ANOMALY":32.7242,"EPHEMERIS_TYPE":0,"CLASSIFICATION_TYPE":"U","NORAD_CAT_ID":31307,"ELEMENT_SET_NO":999,"REV_AT_EPOCH":6928,"BSTAR":0,"MEAN_MOTION_DOT":-2.17e-6,"MEAN_MOTION_DDOT":0},{"OBJECT_NAME":"INTELSAT 11 (IS-11)","OBJECT_ID":"2007-044B","EPOCH":"2026-04-25T18:43:34.373280","MEAN_MOTION":0.99052743,"ECCENTRICITY":0.0001492,"INCLINATION":3.4311,"RA_OF_ASC_NODE":79.2796,"ARG_OF_PERICENTER":223.0503,"MEAN_ANOMALY":188.5547,"EPHEMERIS_TYPE":0,"CLASSIFICATION_TYPE":"U","NORAD_CAT_ID":32253,"ELEMENT_SET_NO":999,"REV_AT_EPOCH":6793,"BSTAR":0,"MEAN_MOTION_DOT":-1.96e-6,"MEAN_MOTION_DDOT":0},{"OBJECT_NAME":"WGS F1 (USA 195)","OBJECT_ID":"2007-046A","EPOCH":"2026-04-25T20:15:10.589184","MEAN_MOTION":1.00270612,"ECCENTRICITY":7.16e-5,"INCLINATION":0.0746,"RA_OF_ASC_NODE":82.3396,"ARG_OF_PERICENTER":243.3747,"MEAN_ANOMALY":149.4361,"EPHEMERIS_TYPE":0,"CLASSIFICATION_TYPE":"U","NORAD_CAT_ID":32258,"ELEMENT_SET_NO":999,"REV_AT_EPOCH":5181,"BSTAR":0,"MEAN_MOTION_DOT":-2.81e-6,"MEAN_MOTION_DDOT":0},{"OBJECT_NAME":"SKYNET 5B","OBJECT_ID":"2007-056B","EPOCH":"2026-04-25T15:26:26.012832","MEAN_MOTION":1.00268658,"ECCENTRICITY":0.0003986,"INCLINATION":5.1201,"RA_OF_ASC_NODE":74.1129,"ARG_OF_PERICENTER":312.8096,"MEAN_ANOMALY":83.454,"EPHEMERIS_TYPE":0,"CLASSIFICATION_TYPE":"U","NORAD_CAT_ID":32294,"ELEMENT_SET_NO":999,"REV_AT_EPOCH":6767,"BSTAR":0,"MEAN_MOTION_DOT":1.3e-6,"MEAN_MOTION_DDOT":0},{"OBJECT_NAME":"ASTRA 4A","OBJECT_ID":"2007-057A","EPOCH":"2026-04-25T20:08:38.475744","MEAN_MOTION":1.00278059,"ECCENTRICITY":0.0002666,"INCLINATION":0.0184,"RA_OF_ASC_NODE":334.2784,"ARG_OF_PERICENTER":68.3733,"MEAN_ANOMALY":118.1713,"EPHEMERIS_TYPE":0,"CLASSIFICATION_TYPE":"U","NORAD_CAT_ID":32299,"ELEMENT_SET_NO":999,"REV_AT_EPOCH":5112,"BSTAR":0,"MEAN_MOTION_DOT":2.0e-7,"MEAN_MOTION_DDOT":0},{"OBJECT_NAME":"HORIZONS-2","OBJECT_ID":"2007-063B","EPOCH":"2026-04-25T20:49:38.771040","MEAN_MOTION":1.0027269,"ECCENTRICITY":0.0003394,"INCLINATION":2.4692,"RA_OF_ASC_NODE":81.2387,"ARG_OF_PERICENTER":320.4992,"MEAN_ANOMALY":50.7559,"EPHEMERIS_TYPE":0,"CLASSIFICATION_TYPE":"U","NORAD_CAT_ID":32388,"ELEMENT_SET_NO":999,"REV_AT_EPOCH":6729,"BSTAR":0,"MEAN_MOTION_DOT":-2.65e-6,"MEAN_MOTION_DDOT":0},{"OBJECT_NAME":"THURAYA-3","OBJECT_ID":"2008-001A","EPOCH":"2026-04-25T19:12:39.083040","MEAN_MOTION":1.00271936,"ECCENTRICITY":0.0002221,"INCLINATION":5.904,"RA_OF_ASC_NODE":35.721,"ARG_OF_PERICENTER":351.7165,"MEAN_ANOMALY":213.0264,"EPHEMERIS_TYPE":0,"CLASSIFICATION_TYPE":"U","NORAD_CAT_ID":32404,"ELEMENT_SET_NO":999,"REV_AT_EPOCH":6696,"BSTAR":0,"MEAN_MOTION_DOT":-3.13e-6,"MEAN_MOTION_DDOT":0},{"OBJECT_NAME":"THOR 5","OBJECT_ID":"2008-006A","EPOCH":"2026-04-25T20:16:02.659008","MEAN_MOTION":1.00272979,"ECCENTRICITY":0.000254,"INCLINATION":0.025,"RA_OF_ASC_NODE":250.2406,"ARG_OF_PERICENTER":150.2994,"MEAN_ANOMALY":116.5753,"EPHEMERIS_TYPE":0,"CLASSIFICATION_TYPE":"U","NORAD_CAT_ID":32487,"ELEMENT_SET_NO":999,"REV_AT_EPOCH":6679,"BSTAR":0,"MEAN_MOTION_DOT":-2.2e-7,"MEAN_MOTION_DDOT":0},{"OBJECT_NAME":"AMC-14","OBJECT_ID":"2008-011A","EPOCH":"2026-04-21T19:50:38.783328","MEAN_MOTION":1.00338742,"ECCENTRICITY":0.00488858,"INCLINATION":23.9537,"RA_OF_ASC_NODE":21.1857,"ARG_OF_PERICENTER":308.8552,"MEAN_ANOMALY":228.1429,"EPHEMERIS_TYPE":0,"CLASSIFICATION_TYPE":"U","NORAD_CAT_ID":32708,"ELEMENT_SET_NO":999,"REV_AT_EPOCH":6760,"BSTAR":0,"MEAN_MOTION_DOT":5.3e-7,"MEAN_MOTION_DDOT":0}]
