KOREASAT 5 (MUGUNGWHA 5)
1 29349U 06034A   26115.80339904 -.00000370  00000+0  00000+0 0  9990
2 29349   1.6520  83.5986 0001574 337.7870 194.7035  1.00272653 40799
DIRECTV 9S              
1 29494U 06043A   26115.63044662 -.00000125  00000+0  00000+0 0  9994
2 29494   2.2871  81.5006 0004121 328.3555 289.5444  1.00271504 50853
OPTUS D1                
1 29495U 06043B   26115.81111241 -.00000195  00000+0  00000+0 0  9990
2 29495   2.9020  80.2712 0003879 313.1610 264.3862  1.00271582 71595
BADR-4                  
1 29526U 06051A   26115.78623897  .00000133  00000+0  00000+0 0  9996
2 29526   1.8715  81.6440 0005952 298.4817 143.0386  1.00271144 50742
WILDBLUE-1              
1 29643U 06054A   26115.61640318 -.00000061  00000+0  00000+0 0  9999
2 29643   2.6693  81.1146 0001548 303.8626 299.3620  1.00272042 53264
SKYNET 5A               
1 30794U 07007B   26115.87316801 -.00000281  00000+0  00000+0 0  9996
2 30794   5.1690  74.3592 0004057 330.3185 218.7847  1.00273297 70178
ANIK F3                 
1 31102U 07009A   26115.68619983 -.00000014  00000+0  00000+0 0  9992
2 31102   1.0633  84.4024 0002687 306.9483 310.6660  1.00272002 46039
ASTRA 1L                
1 31306U 07016A   26115.85600465 -.00000197  00000+0  00000+0 0  9992
2 31306   1.1882  81.9113 0004661 327.9592  87.6472  1.00271540 44464
GALAXY 17 (G-17)        
1 31307U 07016B   26115.86780985 -.00000217  00000+0  00000+0 0  9993
2 31307   2.8419  80.5295 0004247 328.0353  32.7242  1.00271044 69284
INTELSAT 11 (IS-11)     
1 32253U 07044B   26115.78025895 -.00000196  00000+0  00000+0 0  9994
2 32253   3.4311  79.2796 0001492 223.0503 188.5547  0.99052743 67932
WGS F1 (USA 195)        
1 32258U 07046A   26115.84387256 -.00000281  00000+0  00000+0 0  9995
2 32258   0.0746  82.3396 0000716 243.3747 149.4361  1.00270612 51816
SKYNET 5B               
1 32294U 07056B   26115.64335663  .00000130  00000+0  00000+0 0  9991
2 32294   5.1201  74.1129 0003986 312.8096  83.4540  1.00268658 67676
ASTRA 4A                
1 32299U 07057A   26115.83933421  .00000020  00000+0  00000+0 0  9992
2 32299   0.0184 334.2784 0002666  68.3733 118.1713  1.00278059 51124
HORIZONS-2              
1 32388U 07063B   26115.86780985 -.00000265  00000+0  00000+0 0  9998
2 32388   2.4692  81.2387 0003394 320.4992  50.7559  1.00272690 67298
THURAYA-3               
1 32404U 08001A   26115.80045235 -.00000313  00000+0  00000+0 0  9990
2 32404   5.9040  35.7210 0002221 351.7165 213.0264  1.00271936 66960
THOR 5                  
1 32487U 08006A   26115.84447522 -.00000022  00000+0  00000+0 0  9992
2 32487   0.0250 250.2406 0002540 150.2994 116.5753  1.00272979 66796
AMC-14                  
1 32708U 08011A   26111.82683777  .00000053  00000+0  00000+0 0  9995
2 32708  23.9537  21.1857 0048885 308.8552 228.1429  1.00338742 67604
